{
  "norad_id": 62760,
  "name": "STARLINK-33575",
  "history": [
    {
      "epoch": "2026-04-13T04:46:14.477952Z",
      "apogee_km": 476.1254821642842,
      "perigee_km": 474.3197589714555,
      "latitude_deg": 2.7868399371286372e-05,
      "longitude_deg": -110.7466983964644,
      "height_km": 476.018142633949,
      "semi_major_axis_km": 6853.35962056787,
      "eccentricity": 0.00013174,
      "inclination_deg": 53.1577,
      "raan_deg": 162.2066,
      "arg_perigee_deg": 83.4973,
      "mean_anomaly_deg": 276.6178,
      "mean_motion_rev_day": 15.30197471
    },
    {
      "epoch": "2026-04-14T10:33:14.965920Z",
      "apogee_km": 475.9226801944178,
      "perigee_km": 474.51225984448865,
      "latitude_deg": 6.1311140295181745e-06,
      "longitude_deg": 155.5117897390044,
      "height_km": 475.810720515976,
      "semi_major_axis_km": 6853.354470019453,
      "eccentricity": 0.0001029,
      "inclination_deg": 53.1577,
      "raan_deg": 156.4403,
      "arg_perigee_deg": 64.3701,
      "mean_anomaly_deg": 295.7406,
      "mean_motion_rev_day": 15.30199196
    },
    {
      "epoch": "2026-04-15T10:04:03.212832Z",
      "apogee_km": 475.95047975293164,
      "perigee_km": 474.5220996918879,
      "latitude_deg": 5.748517974869099e-05,
      "longitude_deg": 157.29483978601354,
      "height_km": 475.86629780672394,
      "semi_major_axis_km": 6853.37328972241,
      "eccentricity": 0.00010421,
      "inclination_deg": 53.1567,
      "raan_deg": 151.89,
      "arg_perigee_deg": 67.9501,
      "mean_anomaly_deg": 292.1611,
      "mean_motion_rev_day": 15.30192893
    },
    {
      "epoch": "2026-04-16T09:34:50.816064Z",
      "apogee_km": 476.00319760734055,
      "perigee_km": 474.4063689718341,
      "latitude_deg": -6.580895892609586e-06,
      "longitude_deg": 159.0815934049434,
      "height_km": 476.0732051314934,
      "semi_major_axis_km": 6853.341783289587,
      "eccentricity": 0.0001165,
      "inclination_deg": 53.1569,
      "raan_deg": 147.3408,
      "arg_perigee_deg": 87.8849,
      "mean_anomaly_deg": 272.2285,
      "mean_motion_rev_day": 15.30203445
    },
    {
      "epoch": "2026-04-17T21:38:04.226784Z",
      "apogee_km": 475.8792210858692,
      "perigee_km": 474.49731657866323,
      "latitude_deg": 5.1960107008146875e-05,
      "longitude_deg": -30.183312675522867,
      "height_km": 476.00342209276823,
      "semi_major_axis_km": 6853.325268832266,
      "eccentricity": 0.00010082,
      "inclination_deg": 53.1566,
      "raan_deg": 140.3624,
      "arg_perigee_deg": 83.1076,
      "mean_anomaly_deg": 277.004,
      "mean_motion_rev_day": 15.30208976
    },
    {
      "epoch": "2026-04-18T08:36:26.625600Z",
      "apogee_km": 476.131993251347,
      "perigee_km": 474.2780271707452,
      "latitude_deg": 6.798359772119664e-05,
      "longitude_deg": 162.6457304579859,
      "height_km": 476.02977850055385,
      "semi_major_axis_km": 6853.342010211046,
      "eccentricity": 0.00013526,
      "inclination_deg": 53.1549,
      "raan_deg": 138.2354,
      "arg_perigee_deg": 85.5054,
      "mean_anomaly_deg": 274.6102,
      "mean_motion_rev_day": 15.30203369
    },
    {
      "epoch": "2026-04-19T19:05:37.083840Z",
      "apogee_km": 475.96153070245873,
      "perigee_km": 474.4825758187653,
      "latitude_deg": -1.3167253404302138e-05,
      "longitude_deg": -2.736706503840024,
      "height_km": 476.0823789752945,
      "semi_major_axis_km": 6853.359053260612,
      "eccentricity": 0.0001079,
      "inclination_deg": 53.1578,
      "raan_deg": 131.5629,
      "arg_perigee_deg": 87.0718,
      "mean_anomaly_deg": 273.0406,
      "mean_motion_rev_day": 15.30197661
    },
    {
      "epoch": "2026-04-20T07:38:02.754816Z",
      "apogee_km": 476.28846546182467,
      "perigee_km": 474.14185849765,
      "latitude_deg": -2.8407523165586896e-05,
      "longitude_deg": 166.2125002168256,
      "height_km": 476.2654401114059,
      "semi_major_axis_km": 6853.3521619797375,
      "eccentricity": 0.00015661,
      "inclination_deg": 53.157,
      "raan_deg": 129.1341,
      "arg_perigee_deg": 98.1908,
      "mean_anomaly_deg": 261.927,
      "mean_motion_rev_day": 15.30199969
    },
    {
      "epoch": "2026-04-21T18:07:12.980640Z",
      "apogee_km": 476.2706496013443,
      "perigee_km": 474.1351488887394,
      "latitude_deg": -5.15695829912619e-06,
      "longitude_deg": 0.829809623453252,
      "height_km": 476.1547477541055,
      "semi_major_axis_km": 6853.339899245042,
      "eccentricity": 0.0001558,
      "inclination_deg": 53.1617,
      "raan_deg": 122.4603,
      "arg_perigee_deg": 92.8982,
      "mean_anomaly_deg": 267.2197,
      "mean_motion_rev_day": 15.30204076
    },
    {
      "epoch": "2026-04-22T08:13:41.734560Z",
      "apogee_km": 475.95040522676845,
      "perigee_km": 474.49721860020964,
      "latitude_deg": -7.904186342591383e-06,
      "longitude_deg": 145.9017036553846,
      "height_km": 476.15376900428646,
      "semi_major_axis_km": 6853.360811913489,
      "eccentricity": 0.00010602,
      "inclination_deg": 53.1597,
      "raan_deg": 119.7314,
      "arg_perigee_deg": 92.4949,
      "mean_anomaly_deg": 267.6173,
      "mean_motion_rev_day": 15.30197072
    },
    {
      "epoch": "2026-04-24T08:49:20.862912Z",
      "apogee_km": 476.0965433523834,
      "perigee_km": 474.38182863064867,
      "latitude_deg": -4.546305882076078e-06,
      "longitude_deg": 125.5879746767665,
      "height_km": 476.13725013668517,
      "semi_major_axis_km": 6853.376185991516,
      "eccentricity": 0.0001251,
      "inclination_deg": 53.1589,
      "raan_deg": 110.3264,
      "arg_perigee_deg": 90.0056,
      "mean_anomaly_deg": 270.1088,
      "mean_motion_rev_day": 15.30191923
    },
    {
      "epoch": "2026-04-25T16:10:24.523680Z",
      "apogee_km": 476.2938135176346,
      "perigee_km": 474.10622834055357,
      "latitude_deg": -2.5608259439539225e-05,
      "longitude_deg": 7.966164661953131,
      "height_km": 476.0397136030167,
      "semi_major_axis_km": 6853.337020929094,
      "eccentricity": 0.0001596,
      "inclination_deg": 53.1583,
      "raan_deg": 104.2574,
      "arg_perigee_deg": 86.9732,
      "mean_anomaly_deg": 273.1451,
      "mean_motion_rev_day": 15.3020504
    },
    {
      "epoch": "2026-04-26T21:57:25.562880Z",
      "apogee_km": 476.5525449688612,
      "perigee_km": 473.8209471901491,
      "latitude_deg": -6.470496671316522e-05,
      "longitude_deg": -85.77466387593601,
      "height_km": 476.02370807959204,
      "semi_major_axis_km": 6853.323746079504,
      "eccentricity": 0.00019929,
      "inclination_deg": 53.1557,
      "raan_deg": 98.4941,
      "arg_perigee_deg": 87.4972,
      "mean_anomaly_deg": 272.6256,
      "mean_motion_rev_day": 15.30209486
    }
  ]
}